{"type": "FeatureCollection", "features": [ {"type": "Feature", "properties": {"norad_id": 66917, "name": "HULIANWANG DIGUI 14C", "group": "last-30-days", "lat": -33.89061278608521, "lon": 95.31660840825465, "alt_km": 874.0141732825514, "timestamp": "2025-12-09T16:56:35.360589+00:00", "meta": {"OBJECT_NAME": "HULIANWANG DIGUI 14C", "OBJECT_ID": "2025-285C", "EPOCH": "2025-12-09T12:02:44.047680", "MEAN_MOTION": 14.05578338, "ECCENTRICITY": 0.0007532, "INCLINATION": 50.001, "RA_OF_ASC_NODE": 130.4824, "ARG_OF_PERICENTER": 274.234, "MEAN_ANOMALY": 85.7704, "EPHEMERIS_TYPE": 0, "CLASSIFICATION_TYPE": "U", "NORAD_CAT_ID": 66917, "ELEMENT_SET_NO": 999, "REV_AT_EPOCH": 45, "BSTAR": -5.6673e-06, "MEAN_MOTION_DOT": -1.61e-06, "MEAN_MOTION_DDOT": 0}, "tle": {"line1": "1 66917U 25285C   25343.50189870 -.00000161  00000+0 -56673-5 0  9997", "line2": "2 66917  50.0010 130.4824 0007532 274.2340  85.7704 14.05578338   452"}}, "geometry": {"type": "Point", "coordinates": [95.31660840825465, -33.89061278608521]}}, {"type": "Feature", "properties": {"norad_id": 66918, "name": "HULIANWANG DIGUI 14D", "group": "last-30-days", "lat": -32.964983959296646, "lon": 96.66054582754064, "alt_km": 874.486609205117, "timestamp": "2025-12-09T16:56:35.360599+00:00", "meta": {"OBJECT_NAME": "HULIANWANG DIGUI 14D", "OBJECT_ID": "2025-285D", "EPOCH": "2025-12-09T12:02:20.940864", "MEAN_MOTION": 14.05702846, "ECCENTRICITY": 0.0006472, "INCLINATION": 50.0042, "RA_OF_ASC_NODE": 130.4827, "ARG_OF_PERICENTER": 269.192, "MEAN_ANOMALY": 90.8244, "EPHEMERIS_TYPE": 0, "CLASSIFICATION_TYPE": "U", "NORAD_CAT_ID": 66918, "ELEMENT_SET_NO": 999, "REV_AT_EPOCH": 45, "BSTAR": 2.5232e-06, "MEAN_MOTION_DOT": -1.48e-06, "MEAN_MOTION_DDOT": 0}, "tle": {"line1": "1 66918U 25285D   25343.50163126 -.00000148  00000+0  25232-5 0  9995", "line2": "2 66918  50.0042 130.4827 0006472 269.1920  90.8244 14.05702846   459"}}, "geometry": {"type": "Point", "coordinates": [96.66054582754064, -32.964983959296646]}}, {"type": "Feature", "properties": {"norad_id": 66919, "name": "HULIANWANG DIGUI 14E", "group": "last-30-days", "lat": -32.82284710276445, "lon": 96.86610322082926, "alt_km": 873.0333955767555, "timestamp": "2025-12-09T16:56:35.360608+00:00", "meta": {"OBJECT_NAME": "HULIANWANG DIGUI 14E", "OBJECT_ID": "2025-285E", "EPOCH": "2025-12-09T12:02:17.003616", "MEAN_MOTION": 14.05714074, "ECCENTRICITY": 0.0007845, "INCLINATION": 50.0055, "RA_OF_ASC_NODE": 130.4852, "ARG_OF_PERICENTER": 280.5711, "MEAN_ANOMALY": 79.4311, "EPHEMERIS_TYPE": 0, "CLASSIFICATION_TYPE": "U", "NORAD_CAT_ID": 66919, "ELEMENT_SET_NO": 999, "REV_AT_EPOCH": 45, "BSTAR": -9.1326e-06, "MEAN_MOTION_DOT": -1.67e-06, "MEAN_MOTION_DDOT": 0}, "tle": {"line1": "1 66919U 25285E   25343.50158569 -.00000167  00000+0 -91326-5 0  9990", "line2": "2 66919  50.0055 130.4852 0007845 280.5711  79.4311 14.05714074   456"}}, "geometry": {"type": "Point", "coordinates": [96.86610322082926, -32.82284710276445]}}, {"type": "Feature", "properties": {"norad_id": 66920, "name": "HULIANWANG DIGUI 14F", "group": "last-30-days", "lat": -31.817549773639076, "lon": 98.26556098148723, "alt_km": 873.9219522737112, "timestamp": "2025-12-09T16:56:35.360621+00:00", "meta": {"OBJECT_NAME": "HULIANWANG DIGUI 14F", "OBJECT_ID": "2025-285F", "EPOCH": "2025-12-09T12:01:52.429728", "MEAN_MOTION": 14.05849245, "ECCENTRICITY": 0.0005825, "INCLINATION": 50.0088, "RA_OF_ASC_NODE": 130.487, "ARG_OF_PERICENTER": 277.563, "MEAN_ANOMALY": 82.4614, "EPHEMERIS_TYPE": 0, "CLASSIFICATION_TYPE": "U", "NORAD_CAT_ID": 66920, "ELEMENT_SET_NO": 999, "REV_AT_EPOCH": 45, "BSTAR": 0.00013557, "MEAN_MOTION_DOT": 7.1e-07, "MEAN_MOTION_DDOT": 0}, "tle": {"line1": "1 66920U 25285F   25343.50130127  .00000071  00000+0  13557-3 0  9992", "line2": "2 66920  50.0088 130.4870 0005825 277.5630  82.4614 14.05849245   455"}}, "geometry": {"type": "Point", "coordinates": [98.26556098148723, -31.817549773639076]}}, {"type": "Feature", "properties": {"norad_id": 66921, "name": "HULIANWANG DIGUI 14G", "group": "last-30-days", "lat": -31.54787472337458, "lon": 98.63394487563515, "alt_km": 872.8348367505932, "timestamp": "2025-12-09T16:56:35.360633+00:00", "meta": {"OBJECT_NAME": "HULIANWANG DIGUI 14G", "OBJECT_ID": "2025-285G", "EPOCH": "2025-12-09T12:01:45.618816", "MEAN_MOTION": 14.05882346, "ECCENTRICITY": 0.0006958, "INCLINATION": 50.0105, "RA_OF_ASC_NODE": 130.4882, "ARG_OF_PERICENTER": 284.1176, "MEAN_ANOMALY": 75.8956, "EPHEMERIS_TYPE": 0, "CLASSIFICATION_TYPE": "U", "NORAD_CAT_ID": 66921, "ELEMENT_SET_NO": 999, "REV_AT_EPOCH": 45, "BSTAR": 1.3129e-05, "MEAN_MOTION_DOT": -1.31e-06, "MEAN_MOTION_DDOT": 0}, "tle": {"line1": "1 66921U 25285G   25343.50122244 -.00000131  00000+0  13129-4 0  9998", "line2": "2 66921  50.0105 130.4882 0006958 284.1176  75.8956 14.05882346   450"}}, "geometry": {"type": "Point", "coordinates": [98.63394487563515, -31.54787472337458]}}, {"type": "Feature", "properties": {"norad_id": 66922, "name": "HULIANWANG DIGUI 14H", "group": "last-30-days", "lat": -30.652033173228038, "lon": 99.81418125791411, "alt_km": 872.1955246615389, "timestamp": "2025-12-09T16:56:35.360643+00:00", "meta": {"OBJECT_NAME": "HULIANWANG DIGUI 14H", "OBJECT_ID": "2025-285H", "EPOCH": "2025-12-09T12:01:23.894400", "MEAN_MOTION": 14.05997664, "ECCENTRICITY": 0.0006915, "INCLINATION": 50.0078, "RA_OF_ASC_NODE": 130.4835, "ARG_OF_PERICENTER": 290.3386, "MEAN_ANOMALY": 69.6776, "EPHEMERIS_TYPE": 0, "CLASSIFICATION_TYPE": "U", "NORAD_CAT_ID": 66922, "ELEMENT_SET_NO": 999, "REV_AT_EPOCH": 45, "BSTAR": -8.0754e-06, "MEAN_MOTION_DOT": -1.66e-06, "MEAN_MOTION_DDOT": 0}, "tle": {"line1": "1 66922U 25285H   25343.50097100 -.00000166  00000+0 -80754-5 0  9999", "line2": "2 66922  50.0078 130.4835 0006915 290.3386  69.6776 14.05997664   454"}}, "geometry": {"type": "Point", "coordinates": [99.81418125791411, -30.652033173228038]}}, {"type": "Feature", "properties": {"norad_id": 66923, "name": "HULIANWANG DIGUI 14J", "group": "last-30-days", "lat": -28.214369631100123, "lon": 102.87097952091808, "alt_km": 871.5073317662636, "timestamp": "2025-12-09T16:56:35.360653+00:00", "meta": {"OBJECT_NAME": "HULIANWANG DIGUI 14J", "OBJECT_ID": "2025-285J", "EPOCH": "2025-12-07T22:29:36.786048", "MEAN_MOTION": 14.06515715, "ECCENTRICITY": 0.00053876, "INCLINATION": 50.0075, "RA_OF_ASC_NODE": 136.8754, "ARG_OF_PERICENTER": 280.8946, "MEAN_ANOMALY": 79.1354, "EPHEMERIS_TYPE": 0, "CLASSIFICATION_TYPE": "U", "NORAD_CAT_ID": 66923, "ELEMENT_SET_NO": 999, "REV_AT_EPOCH": 23, "BSTAR": -4.7305e-07, "MEAN_MOTION_DOT": -1.53e-06, "MEAN_MOTION_DDOT": 0}, "tle": {"line1": "1 66923U 25285J   25341.93723132 -.00000153  00000+0 -47305-6 0  9998", "line2": "2 66923  50.0075 136.8754 0005387 280.8946  79.1354 14.06515715   238"}}, "geometry": {"type": "Point", "coordinates": [102.87097952091808, -28.214369631100123]}}, {"type": "Feature", "properties": {"norad_id": 66924, "name": "CZ-8A R/B", "group": "last-30-days", "lat": -46.87928194038079, "lon": 12.758094832710157, "alt_km": 872.5781292083611, "timestamp": "2025-12-09T16:56:35.360665+00:00", "meta": {"OBJECT_NAME": "CZ-8A R/B", "OBJECT_ID": "2025-285K", "EPOCH": "2025-12-09T10:44:51.268704", "MEAN_MOTION": 14.30499385, "ECCENTRICITY": 0.0119336, "INCLINATION": 50.0062, "RA_OF_ASC_NODE": 130.1671, "ARG_OF_PERICENTER": 95.1243, "MEAN_ANOMALY": 266.3306, "EPHEMERIS_TYPE": 0, "CLASSIFICATION_TYPE": "U", "NORAD_CAT_ID": 66924, "ELEMENT_SET_NO": 999, "REV_AT_EPOCH": 45, "BSTAR": 4.0197e-05, "MEAN_MOTION_DOT": -5.3e-07, "MEAN_MOTION_DDOT": 0}, "tle": {"line1": "1 66924U 25285K   25343.44781561 -.00000053  00000+0  40197-4 0  9995", "line2": "2 66924  50.0062 130.1671 0119336  95.1243 266.3306 14.30499385   459"}}, "geometry": {"type": "Point", "coordinates": [12.758094832710157, -46.87928194038079]}}]}